ONEWEB-0564             
1 55801U 23029F   24297.77723265  .00000095  00000+0  20286-3 0  9992
2 55801  87.9297  34.1045 0001464 113.0461 247.0827 13.20770205 81760
ONEWEB-0638             
1 55802U 23029G   24298.06256062  .00000149  00000+0  36851-3 0  9997
2 55802  87.9019  49.2930 0002016 118.6359 241.4974 13.14507737 81137
ONEWEB-0639             
1 55803U 23029H   24298.10801538  .00000139  00000+0  31547-3 0  9993
2 55803  87.9161  64.5102 0002887  85.3307 274.8156 13.19724141 80312
ONEWEB-0640             
1 55804U 23029J   24297.84374294  .00000309  00000+0  79983-3 0  9993
2 55804  87.9016  49.3296 0002466 113.2376 246.9014 13.14500919 80411
ONEWEB-0641             
1 55805U 23029K   24298.10326542  .00000076  00000+0  15681-3 0  9993
2 55805  87.9160  64.4896 0001881  92.8399 267.2949 13.19727781 80329
ONEWEB-0642             
1 55806U 23029L   24297.87107621 -.00000010  00000+0 -57330-4 0  9990
2 55806  87.9164  64.5634 0002549  81.0548 279.0873 13.19727399 79592
ONEWEB-0643             
1 55807U 23029M   24298.04196487 -.00000138  00000+0 -40543-3 0  9997
2 55807  87.9017  49.2685 0002155  76.6034 283.5336 13.14502776 81120
ONEWEB-0644             
1 55808U 23029N   24297.86636149  .00000089  00000+0  18930-3 0  9999
2 55808  87.9166  64.5635 0002153  86.1685 273.9693 13.19725185 79590
